{
  "type": "FeatureCollection",
  "features": [
    {
      "type": "Feature",
      "properties": {
        "norad_id": 33822,
        "name": "COSMOS 2251 DEB",
        "group": "cosmos-2251-debris",
        "lat": -51.03500942482184,
        "lon": 24.058242616593223,
        "alt_km": 745.2891015958503,
        "timestamp": "2025-12-18T13:51:50.078623+00:00",
        "meta_object_name": "COSMOS 2251 DEB",
        "meta_object_id": "1993-036BP",
        "meta_epoch": "2025-12-17T23:47:14.762976",
        "meta_mean_motion": 14.13094822,
        "meta_eccentricity": 0.01529932,
        "meta_inclination": 74.0681,
        "meta_ra_of_asc_node": 184.4116,
        "meta_arg_of_pericenter": 229.4581,
        "meta_mean_anomaly": 261.7275,
        "meta_ephemeris_type": 0,
        "meta_classification_type": "U",
        "meta_norad_cat_id": 33822,
        "meta_element_set_no": 999,
        "meta_rev_at_epoch": 86128,
        "meta_bstar": 0.00099928107,
        "meta_mean_motion_dot": 2.061e-05,
        "meta_mean_motion_ddot": 0,
        "tle_line1": "1 33822U 93036BP  25351.99114309  .00002061  00000+0  99928-3 0  9999",
        "tle_line2": "2 33822  74.0681 184.4116 0152993 229.4581 261.7275 14.13094822861280"
      },
      "geometry": {
        "type": "Point",
        "coordinates": [
          24.058242616593223,
          -51.03500942482184
        ]
      }
    },
    {
      "type": "Feature",
      "properties": {
        "norad_id": 33823,
        "name": "COSMOS 2251 DEB",
        "group": "cosmos-2251-debris",
        "lat": 57.9197585032907,
        "lon": -68.51421030861853,
        "alt_km": 1015.6227932869879,
        "timestamp": "2025-12-18T13:51:50.078636+00:00",
        "meta_object_name": "COSMOS 2251 DEB",
        "meta_object_id": "1993-036BQ",
        "meta_epoch": "2025-12-18T03:51:29.325312",
        "meta_mean_motion": 13.98963381,
        "meta_eccentricity": 0.02093811,
        "meta_inclination": 73.8094,
        "meta_ra_of_asc_node": 139.8294,
        "meta_arg_of_pericenter": 264.1194,
        "meta_mean_anomaly": 276.4373,
        "meta_ephemeris_type": 0,
        "meta_classification_type": "U",
        "meta_norad_cat_id": 33823,
        "meta_element_set_no": 999,
        "meta_rev_at_epoch": 85685,
        "meta_bstar": 0.0006240847,
        "meta_mean_motion_dot": 1.061e-05,
        "meta_mean_motion_ddot": 0,
        "tle_line1": "1 33823U 93036BQ  25352.16075608  .00001061  00000+0  62408-3 0  9990",
        "tle_line2": "2 33823  73.8094 139.8294 0209381 264.1194 276.4373 13.98963381856853"
      },
      "geometry": {
        "type": "Point",
        "coordinates": [
          -68.51421030861853,
          57.9197585032907
        ]
      }
    },
    {
      "type": "Feature",
      "properties": {
        "norad_id": 33825,
        "name": "COSMOS 2251 DEB",
        "group": "cosmos-2251-debris",
        "lat": 1.2756137610133707,
        "lon": -163.92757845456183,
        "alt_km": 721.3769241939572,
        "timestamp": "2025-12-18T13:51:50.078648+00:00",
        "meta_object_name": "COSMOS 2251 DEB",
        "meta_object_id": "1993-036BS",
        "meta_epoch": "2025-12-18T05:11:52.609632",
        "meta_mean_motion": 14.69810381,
        "meta_eccentricity": 0.00848269,
        "meta_inclination": 73.9849,
        "meta_ra_of_asc_node": 17.1407,
        "meta_arg_of_pericenter": 342.8716,
        "meta_mean_anomaly": 86.1515,
        "meta_ephemeris_type": 0,
        "meta_classification_type": "U",
        "meta_norad_cat_id": 33825,
        "meta_element_set_no": 999,
        "meta_rev_at_epoch": 88960,
        "meta_bstar": 0.00063516889,
        "meta_mean_motion_dot": 3.976e-05,
        "meta_mean_motion_ddot": 0,
        "tle_line1": "1 33825U 93036BS  25352.21658113  .00003976  00000+0  63517-3 0  9995",
        "tle_line2": "2 33825  73.9849  17.1407 0084826 342.8716  86.1515 14.69810381889600"
      },
      "geometry": {
        "type": "Point",
        "coordinates": [
          -163.92757845456183,
          1.2756137610133707
        ]
      }
    },
    {
      "type": "Feature",
      "properties": {
        "norad_id": 33826,
        "name": "COSMOS 2251 DEB",
        "group": "cosmos-2251-debris",
        "lat": 46.490859075337,
        "lon": 56.417151396875674,
        "alt_km": 665.7518843678681,
        "timestamp": "2025-12-18T13:51:50.078659+00:00",
        "meta_object_name": "COSMOS 2251 DEB",
        "meta_object_id": "1993-036BT",
        "meta_epoch": "2025-12-18T07:23:14.548992",
        "meta_mean_motion": 14.51749553,
        "meta_eccentricity": 0.00827143,
        "meta_inclination": 74.0648,
        "meta_ra_of_asc_node": 39.4079,
        "meta_arg_of_pericenter": 81.9298,
        "meta_mean_anomaly": 357.838,
        "meta_ephemeris_type": 0,
        "meta_classification_type": "U",
        "meta_norad_cat_id": 33826,
        "meta_element_set_no": 999,
        "meta_rev_at_epoch": 87850,
        "meta_bstar": 0.00051357719,
        "meta_mean_motion_dot": 2.129e-05,
        "meta_mean_motion_ddot": 0,
        "tle_line1": "1 33826U 93036BT  25352.30780728  .00002129  00000+0  51358-3 0  9993",
        "tle_line2": "2 33826  74.0648  39.4079 0082714  81.9298 357.8380 14.51749553878500"
      },
      "geometry": {
        "type": "Point",
        "coordinates": [
          56.417151396875674,
          46.490859075337
        ]
      }
    },
    {
      "type": "Feature",
      "properties": {
        "norad_id": 33828,
        "name": "COSMOS 2251 DEB",
        "group": "cosmos-2251-debris",
        "lat": 27.95642087890138,
        "lon": 38.50186615626306,
        "alt_km": 760.4949221333427,
        "timestamp": "2025-12-18T13:51:50.078670+00:00",
        "meta_object_name": "COSMOS 2251 DEB",
        "meta_object_id": "1993-036BV",
        "meta_epoch": "2025-12-18T02:03:45.191808",
        "meta_mean_motion": 14.44348718,
        "meta_eccentricity": 0.00294958,
        "meta_inclination": 74.0456,
        "meta_ra_of_asc_node": 228.1488,
        "meta_arg_of_pericenter": 300.2482,
        "meta_mean_anomaly": 174.8941,
        "meta_ephemeris_type": 0,
        "meta_classification_type": "U",
        "meta_norad_cat_id": 33828,
        "meta_element_set_no": 999,
        "meta_rev_at_epoch": 88390,
        "meta_bstar": 0.00033723455,
        "meta_mean_motion_dot": 1.14e-05,
        "meta_mean_motion_ddot": 0,
        "tle_line1": "1 33828U 93036BV  25352.08593972  .00001140  00000+0  33723-3 0  9991",
        "tle_line2": "2 33828  74.0456 228.1488 0029495 300.2482 174.8941 14.44348718883909"
      },
      "geometry": {
        "type": "Point",
        "coordinates": [
          38.50186615626306,
          27.95642087890138
        ]
      }
    },
    {
      "type": "Feature",
      "properties": {
        "norad_id": 33830,
        "name": "COSMOS 2251 DEB",
        "group": "cosmos-2251-debris",
        "lat": -9.442360054327805,
        "lon": -143.8094226162084,
        "alt_km": 613.5991814872459,
        "timestamp": "2025-12-18T13:51:50.078681+00:00",
        "meta_object_name": "COSMOS 2251 DEB",
        "meta_object_id": "1993-036BX",
        "meta_epoch": "2025-12-18T03:04:49.238688",
        "meta_mean_motion": 14.76958324,
        "meta_eccentricity": 0.00425177,
        "meta_inclination": 74.0318,
        "meta_ra_of_asc_node": 219.8007,
        "meta_arg_of_pericenter": 338.7549,
        "meta_mean_anomaly": 143.3944,
        "meta_ephemeris_type": 0,
        "meta_classification_type": "U",
        "meta_norad_cat_id": 33830,
        "meta_element_set_no": 999,
        "meta_rev_at_epoch": 89551,
        "meta_bstar": 0.00061062991,
        "meta_mean_motion_dot": 4.332e-05,
        "meta_mean_motion_ddot": 0,
        "tle_line1": "1 33830U 93036BX  25352.12834767  .00004332  00000+0  61063-3 0  9993",
        "tle_line2": "2 33830  74.0318 219.8007 0042517 338.7549 143.3944 14.76958324895512"
      },
      "geometry": {
        "type": "Point",
        "coordinates": [
          -143.8094226162084,
          -9.442360054327805
        ]
      }
    },
    {
      "type": "Feature",
      "properties": {
        "norad_id": 33832,
        "name": "COSMOS 2251 DEB",
        "group": "cosmos-2251-debris",
        "lat": 55.539594643069485,
        "lon": -136.54127293162944,
        "alt_km": 702.2760821876145,
        "timestamp": "2025-12-18T13:51:50.078691+00:00",
        "meta_object_name": "COSMOS 2251 DEB",
        "meta_object_id": "1993-036BZ",
        "meta_epoch": "2025-12-18T01:10:46.769952",
        "meta_mean_motion": 14.60708001,
        "meta_eccentricity": 0.00245104,
        "meta_inclination": 74.0532,
        "meta_ra_of_asc_node": 199.8438,
        "meta_arg_of_pericenter": 229.8857,
        "meta_mean_anomaly": 291.2049,
        "meta_ephemeris_type": 0,
        "meta_classification_type": "U",
        "meta_norad_cat_id": 33832,
        "meta_element_set_no": 999,
        "meta_rev_at_epoch": 88502,
        "meta_bstar": 0.0010053051,
        "meta_mean_motion_dot": 4.894e-05,
        "meta_mean_motion_ddot": 0,
        "tle_line1": "1 33832U 93036BZ  25352.04915243  .00004894  00000+0  10053-2 0  9990",
        "tle_line2": "2 33832  74.0532 199.8438 0024510 229.8857 291.2049 14.60708001885024"
      },
      "geometry": {
        "type": "Point",
        "coordinates": [
          -136.54127293162944,
          55.539594643069485
        ]
      }
    }
  ]
}